{
  "type": "FeatureCollection",
  "features": [
    {
      "type": "Feature",
      "properties": {
        "norad_id": 29828,
        "name": "FENGYUN 1C DEB",
        "group": "fengyun-1c-debris",
        "lat": -6.074735037576857,
        "lon": 27.065771276351622,
        "alt_km": 913.7775073867933,
        "timestamp": "2025-12-06T11:28:11.334213+00:00",
        "meta_object_name": "FENGYUN 1C DEB",
        "meta_object_id": "1999-025DW",
        "meta_epoch": "2025-12-05T20:24:53.598240",
        "meta_mean_motion": 14.08135747,
        "meta_eccentricity": 0.00612544,
        "meta_inclination": 98.7707,
        "meta_ra_of_asc_node": 25.5148,
        "meta_arg_of_pericenter": 175.302,
        "meta_mean_anomaly": 240.5311,
        "meta_ephemeris_type": 0,
        "meta_classification_type": "U",
        "meta_norad_cat_id": 29828,
        "meta_element_set_no": 999,
        "meta_rev_at_epoch": 96640,
        "meta_bstar": 0.0016920119,
        "meta_mean_motion_dot": 2.892e-05,
        "meta_mean_motion_ddot": 0,
        "tle_line1": "1 29828U 99025DW  25339.85062035  .00002892  00000+0  16920-2 0  9995",
        "tle_line2": "2 29828  98.7707  25.5148 0061254 175.3020 240.5311 14.08135747966401"
      },
      "geometry": {
        "type": "Point",
        "coordinates": [
          27.065771276351622,
          -6.074735037576857
        ]
      }
    },
    {
      "type": "Feature",
      "properties": {
        "norad_id": 29832,
        "name": "FENGYUN 1C DEB",
        "group": "fengyun-1c-debris",
        "lat": 17.621183545366243,
        "lon": 88.71288887883655,
        "alt_km": 668.5045790286204,
        "timestamp": "2025-12-06T11:28:11.334223+00:00",
        "meta_object_name": "FENGYUN 1C DEB",
        "meta_object_id": "1999-025EA",
        "meta_epoch": "2025-12-05T20:33:04.702752",
        "meta_mean_motion": 14.56537765,
        "meta_eccentricity": 0.01924213,
        "meta_inclination": 98.8194,
        "meta_ra_of_asc_node": 90.8819,
        "meta_arg_of_pericenter": 304.2136,
        "meta_mean_anomaly": 54.0956,
        "meta_ephemeris_type": 0,
        "meta_classification_type": "U",
        "meta_norad_cat_id": 29832,
        "meta_element_set_no": 999,
        "meta_rev_at_epoch": 155,
        "meta_bstar": 0.00025217136,
        "meta_mean_motion_dot": 1.378e-05,
        "meta_mean_motion_ddot": 0,
        "tle_line1": "1 29832U 99025EA  25339.85630443  .00001378  00000+0  25217-3 0  9992",
        "tle_line2": "2 29832  98.8194  90.8819 0192421 304.2136  54.0956 14.56537765  1557"
      },
      "geometry": {
        "type": "Point",
        "coordinates": [
          88.71288887883655,
          17.621183545366243
        ]
      }
    },
    {
      "type": "Feature",
      "properties": {
        "norad_id": 29833,
        "name": "FENGYUN 1C DEB",
        "group": "fengyun-1c-debris",
        "lat": -31.963788863754342,
        "lon": -32.4107053072198,
        "alt_km": 561.0227945172555,
        "timestamp": "2025-12-06T11:28:11.334233+00:00",
        "meta_object_name": "FENGYUN 1C DEB",
        "meta_object_id": "1999-025EB",
        "meta_epoch": "2025-12-05T16:17:03.954336",
        "meta_mean_motion": 14.90819296,
        "meta_eccentricity": 0.00894819,
        "meta_inclination": 99.0755,
        "meta_ra_of_asc_node": 320.947,
        "meta_arg_of_pericenter": 280.1055,
        "meta_mean_anomaly": 79.0074,
        "meta_ephemeris_type": 0,
        "meta_classification_type": "U",
        "meta_norad_cat_id": 29833,
        "meta_element_set_no": 999,
        "meta_rev_at_epoch": 466,
        "meta_bstar": 0.0022180698,
        "meta_mean_motion_dot": 0.00023553,
        "meta_mean_motion_ddot": 0,
        "tle_line1": "1 29833U 99025EB  25339.67851799  .00023553  00000+0  22181-2 0  9997",
        "tle_line2": "2 29833  99.0755 320.9470 0089481 280.1055  79.0074 14.90819296  4660"
      },
      "geometry": {
        "type": "Point",
        "coordinates": [
          -32.4107053072198,
          -31.963788863754342
        ]
      }
    },
    {
      "type": "Feature",
      "properties": {
        "norad_id": 29835,
        "name": "FENGYUN 1C DEB",
        "group": "fengyun-1c-debris",
        "lat": 32.17449961869597,
        "lon": -65.76860261757435,
        "alt_km": 746.7467753440887,
        "timestamp": "2025-12-06T11:28:11.334243+00:00",
        "meta_object_name": "FENGYUN 1C DEB",
        "meta_object_id": "1999-025ED",
        "meta_epoch": "2025-12-05T22:03:11.087712",
        "meta_mean_motion": 14.43368942,
        "meta_eccentricity": 0.01681682,
        "meta_inclination": 99.0253,
        "meta_ra_of_asc_node": 107.9004,
        "meta_arg_of_pericenter": 57.3586,
        "meta_mean_anomaly": 64.8545,
        "meta_ephemeris_type": 0,
        "meta_classification_type": "U",
        "meta_norad_cat_id": 29835,
        "meta_element_set_no": 999,
        "meta_rev_at_epoch": 99396,
        "meta_bstar": 0.00011719365,
        "meta_mean_motion_dot": 4.13e-06,
        "meta_mean_motion_ddot": 0,
        "tle_line1": "1 29835U 99025ED  25339.91887833  .00000413  00000+0  11719-3 0  9990",
        "tle_line2": "2 29835  99.0253 107.9004 0168168  57.3586  64.8545 14.43368942993964"
      },
      "geometry": {
        "type": "Point",
        "coordinates": [
          -65.76860261757435,
          32.17449961869597
        ]
      }
    },
    {
      "type": "Feature",
      "properties": {
        "norad_id": 29836,
        "name": "FENGYUN 1C DEB",
        "group": "fengyun-1c-debris",
        "lat": 26.862223491739783,
        "lon": -99.2673750824991,
        "alt_km": 670.8637469000414,
        "timestamp": "2025-12-06T11:28:11.334253+00:00",
        "meta_object_name": "FENGYUN 1C DEB",
        "meta_object_id": "1999-025EE",
        "meta_epoch": "2025-12-05T18:50:09.406176",
        "meta_mean_motion": 14.54031343,
        "meta_eccentricity": 0.01543146,
        "meta_inclination": 98.189,
        "meta_ra_of_asc_node": 75.8717,
        "meta_arg_of_pericenter": 223.9309,
        "meta_mean_anomaly": 264.656,
        "meta_ephemeris_type": 0,
        "meta_classification_type": "U",
        "meta_norad_cat_id": 29836,
        "meta_element_set_no": 999,
        "meta_rev_at_epoch": 63454,
        "meta_bstar": 0.0012706017,
        "meta_mean_motion_dot": 6.232e-05,
        "meta_mean_motion_ddot": 0,
        "tle_line1": "1 29836U 99025EE  25339.78483109  .00006232  00000+0  12706-2 0  9995",
        "tle_line2": "2 29836  98.1890  75.8717 0154314 223.9309 264.6560 14.54031343634545"
      },
      "geometry": {
        "type": "Point",
        "coordinates": [
          -99.2673750824991,
          26.862223491739783
        ]
      }
    },
    {
      "type": "Feature",
      "properties": {
        "norad_id": 29841,
        "name": "FENGYUN 1C DEB",
        "group": "fengyun-1c-debris",
        "lat": -20.02500167673361,
        "lon": -69.38816727352027,
        "alt_km": 602.7294188271453,
        "timestamp": "2025-12-06T11:28:11.334264+00:00",
        "meta_object_name": "FENGYUN 1C DEB",
        "meta_object_id": "1999-025EK",
        "meta_epoch": "2025-12-05T19:13:18.238656",
        "meta_mean_motion": 14.4641855,
        "meta_eccentricity": 0.02010744,
        "meta_inclination": 98.8176,
        "meta_ra_of_asc_node": 286.6641,
        "meta_arg_of_pericenter": 354.503,
        "meta_mean_anomaly": 62.6282,
        "meta_ephemeris_type": 0,
        "meta_classification_type": "U",
        "meta_norad_cat_id": 29841,
        "meta_element_set_no": 999,
        "meta_rev_at_epoch": 99223,
        "meta_bstar": 0.001164328,
        "meta_mean_motion_dot": 5.328e-05,
        "meta_mean_motion_ddot": 0,
        "tle_line1": "1 29841U 99025EK  25339.80090554  .00005328  00000+0  11643-2 0  9996",
        "tle_line2": "2 29841  98.8176 286.6641 0201074 354.5030  62.6282 14.46418550992231"
      },
      "geometry": {
        "type": "Point",
        "coordinates": [
          -69.38816727352027,
          -20.02500167673361
        ]
      }
    },
    {
      "type": "Feature",
      "properties": {
        "norad_id": 29842,
        "name": "FENGYUN 1C DEB",
        "group": "fengyun-1c-debris",
        "lat": 75.66465884835763,
        "lon": 31.638044121543476,
        "alt_km": 706.2098891673768,
        "timestamp": "2025-12-06T11:28:11.334274+00:00",
        "meta_object_name": "FENGYUN 1C DEB",
        "meta_object_id": "1999-025EL",
        "meta_epoch": "2025-12-05T19:14:13.850016",
        "meta_mean_motion": 14.60091354,
        "meta_eccentricity": 0.01092062,
        "meta_inclination": 98.5702,
        "meta_ra_of_asc_node": 67.1034,
        "meta_arg_of_pericenter": 186.6405,
        "meta_mean_anomaly": 299.9506,
        "meta_ephemeris_type": 0,
        "meta_classification_type": "U",
        "meta_norad_cat_id": 29842,
        "meta_element_set_no": 999,
        "meta_rev_at_epoch": 99252,
        "meta_bstar": 0.002700566,
        "meta_mean_motion_dot": 0.0001409,
        "meta_mean_motion_ddot": 0,
        "tle_line1": "1 29842U 99025EL  25339.80154919  .00014090  00000+0  27006-2 0  9999",
        "tle_line2": "2 29842  98.5702  67.1034 0109206 186.6405 299.9506 14.60091354992527"
      },
      "geometry": {
        "type": "Point",
        "coordinates": [
          31.638044121543476,
          75.66465884835763
        ]
      }
    }
  ]
}